[{"OBJECT_NAME":"YAOGAN-30 11C","OBJECT_ID":"2021-065D","EPOCH":"2026-03-09T22:23:40.743744","MEAN_MOTION":15.02147773,"ECCENTRICITY":0.00031824,"INCLINATION":34.9942,"RA_OF_ASC_NODE":157.3601,"ARG_OF_PERICENTER":128.8602,"MEAN_ANOMALY":231.239,"EPHEMERIS_TYPE":0,"CLASSIFICATION_TYPE":"U","NORAD_CAT_ID":49029,"ELEMENT_SET_NO":999,"REV_AT_EPOCH":25372,"BSTAR":0.00028936186,"MEAN_MOTION_DOT":3.857e-5,"MEAN_MOTION_DDOT":0},{"OBJECT_NAME":"DELTA 1 DEB","OBJECT_ID":"1977-065F","EPOCH":"2026-03-07T02:52:17.224320","MEAN_MOTION":14.18507323,"ECCENTRICITY":0.04728611,"INCLINATION":28.2353,"RA_OF_ASC_NODE":348.8743,"ARG_OF_PERICENTER":258.4635,"MEAN_ANOMALY":96.2486,"EPHEMERIS_TYPE":0,"CLASSIFICATION_TYPE":"U","NORAD_CAT_ID":10177,"ELEMENT_SET_NO":999,"REV_AT_EPOCH":28253,"BSTAR":0.00045332174,"MEAN_MOTION_DOT":3.156e-5,"MEAN_MOTION_DDOT":0}]
